start=new Date('2022-06-09T00:00:00.000Z').valueOf();
sats=[{"CLASSIFICATION_TYPE":"U","COUNTRY_CODE":"US","ARG_OF_PERICENTER":"11.3152","PERIOD":"91.543","FILE":"3486182","OBJECT_ID":"2022-045Y","REV_AT_EPOCH":"884","REF_FRAME":"TEME","DECAY_DATE":null,"BSTAR":"-0.00323940000000","OBJECT_NAME":"STARLINK-3807","MEAN_ELEMENT_THEORY":"SGP4","APOAPSIS":"352.104","ELEMENT_SET_NO":"999","SEMIMAJOR_AXIS":"6728.394","RCS_SIZE":"LARGE","MEAN_MOTION_DOT":"-0.00429718","EPOCH":"2022-06-08T22:00:01.999584","RA_OF_ASC_NODE":"238.1542","MEAN_MOTION_DDOT":"0.0000000000000","TLE_LINE1":"1 52353U 22045Y   22159.91668981 -.00429718  00000-0 -32394-2 0  9994","NORAD_CAT_ID":"52353","TIME_SYSTEM":"UTC","ECCENTRICITY":"0.00027430","MEAN_MOTION":"15.73025180","PERIAPSIS":"348.413","MEAN_ANOMALY":"351.8549","OBJECT_TYPE":"PAYLOAD","INCLINATION":"53.2167","EPHEMERIS_TYPE":"0","LAUNCH_DATE":"2022-04-29","SITE":"AFETR","GP_ID":"205644052","TLE_LINE2":"2 52353  53.2167 238.1542 0002743  11.3152 351.8549 15.73025180  8845","CENTER_NAME":"EARTH"},{"LAUNCH_DATE":"2022-04-29","EPHEMERIS_TYPE":"0","OBJECT_TYPE":"PAYLOAD","INCLINATION":"53.2167","TLE_LINE2":"2 52354  53.2167 238.1480 0002887  11.9652 354.8170 15.72968270  8856","CENTER_NAME":"EARTH","SITE":"AFETR","GP_ID":"205644058","TIME_SYSTEM":"UTC","NORAD_CAT_ID":"52354","PERIAPSIS":"348.478","MEAN_ANOMALY":"354.8170","ECCENTRICITY":"0.00028870","MEAN_MOTION":"15.72968270","MEAN_ELEMENT_THEORY":"SGP4","APOAPSIS":"352.363","BSTAR":"-0.00236930000000","OBJECT_NAME":"STARLINK-3876","TLE_LINE1":"1 52354U 22045Z   22159.91668981 -.00317834  00000-0 -23693-2 0  9992","ELEMENT_SET_NO":"999","RCS_SIZE":"LARGE","RA_OF_ASC_NODE":"238.1480","SEMIMAJOR_AXIS":"6728.556","EPOCH":"2022-06-08T22:00:01.999584","MEAN_MOTION_DOT":"-0.00317834","MEAN_MOTION_DDOT":"0.0000000000000","COUNTRY_CODE":"US","PERIOD":"91.547","ARG_OF_PERICENTER":"11.9652","FILE":"3486182","CLASSIFICATION_TYPE":"U","REV_AT_EPOCH":"885","DECAY_DATE":null,"REF_FRAME":"TEME","OBJECT_ID":"2022-045Z"},{"COUNTRY_CODE":"US","FILE":"3486158","PERIOD":"91.539","ARG_OF_PERICENTER":"9.5667","CLASSIFICATION_TYPE":"U","REV_AT_EPOCH":"885","REF_FRAME":"TEME","DECAY_DATE":null,"OBJECT_ID":"2022-045AA","APOAPSIS":"351.868","MEAN_ELEMENT_THEORY":"SGP4","BSTAR":"-0.00402070000000","OBJECT_NAME":"STARLINK-3877","TLE_LINE1":"1 52355U 22045AA  22159.91668981 -.00528786  00000-0 -40207-2 0  9993","RCS_SIZE":"LARGE","EPOCH":"2022-06-08T22:00:01.999584","SEMIMAJOR_AXIS":"6728.178","MEAN_MOTION_DOT":"-0.00528786","RA_OF_ASC_NODE":"238.1532","ELEMENT_SET_NO":"999","MEAN_MOTION_DDOT":"0.0000000000000","TIME_SYSTEM":"UTC","NORAD_CAT_ID":"52355","MEAN_ANOMALY":"354.1619","PERIAPSIS":"348.217","ECCENTRICITY":"0.00027130","MEAN_MOTION":"15.73100924","LAUNCH_DATE":"2022-04-29","EPHEMERIS_TYPE":"0","OBJECT_TYPE":"PAYLOAD","INCLINATION":"53.2168","TLE_LINE2":"2 52355  53.2168 238.1532 0002713   9.5667 354.1619 15.73100924  8859","CENTER_NAME":"EARTH","SITE":"AFETR","GP_ID":"205643477"},{"PERIAPSIS":"348.427","MEAN_ANOMALY":"352.1120","MEAN_MOTION":"15.73158210","ECCENTRICITY":"0.00021580","TIME_SYSTEM":"UTC","NORAD_CAT_ID":"52356","CENTER_NAME":"EARTH","TLE_LINE2":"2 52356  53.2134 238.1497 0002158  13.6545 352.1120 15.73158210  8853","GP_ID":"205644134","SITE":"AFETR","EPHEMERIS_TYPE":"0","LAUNCH_DATE":"2022-04-29","INCLINATION":"53.2134","OBJECT_TYPE":"PAYLOAD","DECAY_DATE":null,"REF_FRAME":"TEME","REV_AT_EPOCH":"885","OBJECT_ID":"2022-045AB","FILE":"3486182","PERIOD":"91.536","ARG_OF_PERICENTER":"13.6545","COUNTRY_CODE":"US","CLASSIFICATION_TYPE":"U","TLE_LINE1":"1 52356U 22045AB  22159.91668981 -.00062884  00000-0 -44773-3 0  9999","MEAN_MOTION_DDOT":"0.0000000000000","SEMIMAJOR_AXIS":"6728.014","RCS_SIZE":"LARGE","EPOCH":"2022-06-08T22:00:01.999584","MEAN_MOTION_DOT":"-0.00062884","RA_OF_ASC_NODE":"238.1497","ELEMENT_SET_NO":"999","APOAPSIS":"351.331","MEAN_ELEMENT_THEORY":"SGP4","OBJECT_NAME":"STARLINK-3801","BSTAR":"-0.00044773000000"},{"ECCENTRICITY":"0.00026410","MEAN_MOTION":"15.72921378","PERIAPSIS":"348.778","MEAN_ANOMALY":"348.6215","NORAD_CAT_ID":"52357","TIME_SYSTEM":"UTC","SITE":"AFETR","GP_ID":"205644146","TLE_LINE2":"2 52357  53.2166 238.1513 0002641  16.4001 348.6215 15.72921378  8850","CENTER_NAME":"EARTH","OBJECT_TYPE":"PAYLOAD","INCLINATION":"53.2166","LAUNCH_DATE":"2022-04-29","EPHEMERIS_TYPE":"0","OBJECT_ID":"2022-045AC","REV_AT_EPOCH":"885","REF_FRAME":"TEME","DECAY_DATE":null,"CLASSIFICATION_TYPE":"U","COUNTRY_CODE":"US","FILE":"3486182","PERIOD":"91.549","ARG_OF_PERICENTER":"16.4001","RCS_SIZE":"LARGE","EPOCH":"2022-06-08T22:00:01.999584","SEMIMAJOR_AXIS":"6728.690","MEAN_MOTION_DOT":"-0.00266541","RA_OF_ASC_NODE":"238.1513","ELEMENT_SET_NO":"999","MEAN_MOTION_DDOT":"0.0000000000000","TLE_LINE1":"1 52357U 22045AC  22159.91668981 -.00266541  00000-0 -19784-2 0  9999","BSTAR":"-0.00197840000000","OBJECT_NAME":"STARLINK-3821","APOAPSIS":"352.332","MEAN_ELEMENT_THEORY":"SGP4"},{"MEAN_ANOMALY":"351.7419","PERIAPSIS":"348.691","MEAN_MOTION":"15.72963215","ECCENTRICITY":"0.00025920","TIME_SYSTEM":"UTC","NORAD_CAT_ID":"52358","CENTER_NAME":"EARTH","TLE_LINE2":"2 52358  53.2167 238.1451 0002592  16.8364 351.7419 15.72963215  8851","GP_ID":"205644056","SITE":"AFETR","EPHEMERIS_TYPE":"0","LAUNCH_DATE":"2022-04-29","INCLINATION":"53.2167","OBJECT_TYPE":"PAYLOAD","DECAY_DATE":null,"REF_FRAME":"TEME","REV_AT_EPOCH":"885","OBJECT_ID":"2022-045AD","PERIOD":"91.547","ARG_OF_PERICENTER":"16.8364","FILE":"3486182","COUNTRY_CODE":"US","CLASSIFICATION_TYPE":"U","TLE_LINE1":"1 52358U 22045AD  22159.91668981 -.00289972  00000-0 -21548-2 0  9994","MEAN_MOTION_DDOT":"0.0000000000000","ELEMENT_SET_NO":"999","EPOCH":"2022-06-08T22:00:01.999584","RCS_SIZE":"LARGE","SEMIMAJOR_AXIS":"6728.570","RA_OF_ASC_NODE":"238.1451","MEAN_MOTION_DOT":"-0.00289972","MEAN_ELEMENT_THEORY":"SGP4","APOAPSIS":"352.179","OBJECT_NAME":"STARLINK-3837","BSTAR":"-0.00215480000000"},{"ELEMENT_SET_NO":"999","RCS_SIZE":"LARGE","SEMIMAJOR_AXIS":"6728.606","MEAN_MOTION_DOT":"-0.00298095","RA_OF_ASC_NODE":"238.1491","EPOCH":"2022-06-08T22:00:01.999584","MEAN_MOTION_DDOT":"0.0000000000000","TLE_LINE1":"1 52359U 22045AE  22159.91668981 -.00298095  00000-0 -22184-2 0  9998","BSTAR":"-0.00221840000000","OBJECT_NAME":"STARLINK-3853","MEAN_ELEMENT_THEORY":"SGP4","APOAPSIS":"352.408","OBJECT_ID":"2022-045AE","REV_AT_EPOCH":"885","REF_FRAME":"TEME","DECAY_DATE":null,"CLASSIFICATION_TYPE":"U","COUNTRY_CODE":"US","PERIOD":"91.548","ARG_OF_PERICENTER":"10.5792","FILE":"3486182","SITE":"AFETR","GP_ID":"205644062","TLE_LINE2":"2 52359  53.2167 238.1491 0002879  10.5792 355.6134 15.72950855  8853","CENTER_NAME":"EARTH","OBJECT_TYPE":"PAYLOAD","INCLINATION":"53.2167","LAUNCH_DATE":"2022-04-29","EPHEMERIS_TYPE":"0","ECCENTRICITY":"0.00028790","MEAN_MOTION":"15.72950855","MEAN_ANOMALY":"355.6134","PERIAPSIS":"348.533","NORAD_CAT_ID":"52359","TIME_SYSTEM":"UTC"},{"REF_FRAME":"TEME","DECAY_DATE":null,"REV_AT_EPOCH":"884","OBJECT_ID":"2022-045AF","PERIOD":"91.536","ARG_OF_PERICENTER":"21.3847","FILE":"3486182","COUNTRY_CODE":"US","CLASSIFICATION_TYPE":"U","TLE_LINE1":"1 52360U 22045AF  22159.91668981 -.00040555  00000-0 -28640-3 0  9990","MEAN_MOTION_DDOT":"0.0000000000000","ELEMENT_SET_NO":"999","RCS_SIZE":"LARGE","SEMIMAJOR_AXIS":"6728.019","RA_OF_ASC_NODE":"238.1405","EPOCH":"2022-06-08T22:00:01.999584","MEAN_MOTION_DOT":"-0.00040555","MEAN_ELEMENT_THEORY":"SGP4","APOAPSIS":"351.587","OBJECT_NAME":"STARLINK-3824","BSTAR":"-0.00028640000000","MEAN_ANOMALY":"348.5464","PERIAPSIS":"348.181","MEAN_MOTION":"15.73156568","ECCENTRICITY":"0.00025310","TIME_SYSTEM":"UTC","NORAD_CAT_ID":"52360","CENTER_NAME":"EARTH","TLE_LINE2":"2 52360  53.2141 238.1405 0002531  21.3847 348.5464 15.73156568  8844","GP_ID":"205644059","SITE":"AFETR","LAUNCH_DATE":"2022-04-29","EPHEMERIS_TYPE":"0","INCLINATION":"53.2141","OBJECT_TYPE":"PAYLOAD"},{"DECAY_DATE":null,"REF_FRAME":"TEME","REV_AT_EPOCH":"885","OBJECT_ID":"2022-045AG","ARG_OF_PERICENTER":"15.7742","PERIOD":"91.548","FILE":"3486156","COUNTRY_CODE":"US","CLASSIFICATION_TYPE":"U","TLE_LINE1":"1 52361U 22045AG  22159.91668981 -.00277495  00000-0 -20604-2 0  9997","MEAN_MOTION_DDOT":"0.0000000000000","ELEMENT_SET_NO":"999","RCS_SIZE":"LARGE","EPOCH":"2022-06-08T22:00:01.999584","SEMIMAJOR_AXIS":"6728.619","RA_OF_ASC_NODE":"238.1472","MEAN_MOTION_DOT":"-0.00277495","MEAN_ELEMENT_THEORY":"SGP4","APOAPSIS":"352.198","OBJECT_NAME":"STARLINK-3728","BSTAR":"-0.00206040000000","MEAN_ANOMALY":"351.6165","PERIAPSIS":"348.770","MEAN_MOTION":"15.72946159","ECCENTRICITY":"0.00025480","TIME_SYSTEM":"UTC","NORAD_CAT_ID":"52361","CENTER_NAME":"EARTH","TLE_LINE2":"2 52361  53.2167 238.1472 0002548  15.7742 351.6165 15.72946159  8852","GP_ID":"205643726","SITE":"AFETR","LAUNCH_DATE":"2022-04-29","EPHEMERIS_TYPE":"0","INCLINATION":"53.2167","OBJECT_TYPE":"PAYLOAD"},{"ELEMENT_SET_NO":"999","RCS_SIZE":"LARGE","EPOCH":"2022-06-08T14:00:01.000224","SEMIMAJOR_AXIS":"6727.796","RA_OF_ASC_NODE":"239.7907","MEAN_MOTION_DOT":"-0.00050583","MEAN_MOTION_DDOT":"0.0000000000000","TLE_LINE1":"1 52362U 22045AH  22159.58334491 -.00050583  00000-0 -35754-3 0  9997","BSTAR":"-0.00035754000000","OBJECT_NAME":"STARLINK-3848","MEAN_ELEMENT_THEORY":"SGP4","APOAPSIS":"351.375","OBJECT_ID":"2022-045AH","REV_AT_EPOCH":"130","REF_FRAME":"TEME","DECAY_DATE":null,"CLASSIFICATION_TYPE":"U","COUNTRY_CODE":"US","ARG_OF_PERICENTER":"25.3879","PERIOD":"91.531","FILE":"3485745","SITE":"AFETR","GP_ID":"205638154","TLE_LINE2":"2 52362  53.2139 239.7907 0002547  25.3879 256.1219 15.73234666  1305","CENTER_NAME":"EARTH","OBJECT_TYPE":"PAYLOAD","INCLINATION":"53.2139","EPHEMERIS_TYPE":"0","LAUNCH_DATE":"2022-04-29","ECCENTRICITY":"0.00025470","MEAN_MOTION":"15.73234666","MEAN_ANOMALY":"256.1219","PERIAPSIS":"347.948","NORAD_CAT_ID":"52362","TIME_SYSTEM":"UTC"}];
